{
  "norad_id": 53991,
  "name": "STARLINK-5118",
  "history": [
    {
      "epoch": "2026-04-10T03:47:32.438112Z",
      "apogee_km": 540.5784891278972,
      "perigee_km": 538.9760234695686,
      "latitude_deg": 2.3265560907182993e-05,
      "longitude_deg": 167.50478220183766,
      "height_km": 540.6387793406094,
      "semi_major_axis_km": 6917.914256298733,
      "eccentricity": 0.00011582,
      "inclination_deg": 53.2171,
      "raan_deg": 62.7858,
      "arg_perigee_deg": 87.5377,
      "mean_anomaly_deg": 272.5748,
      "mean_motion_rev_day": 15.0882892
    },
    {
      "epoch": "2026-04-11T06:49:05.565216Z",
      "apogee_km": 540.5877351145873,
      "perigee_km": 538.9122228882725,
      "latitude_deg": 1.3837441407533995e-05,
      "longitude_deg": 115.95143015477124,
      "height_km": 540.619604260515,
      "semi_major_axis_km": 6917.88697900143,
      "eccentricity": 0.0001211,
      "inclination_deg": 53.2176,
      "raan_deg": 57.7304,
      "arg_perigee_deg": 88.2006,
      "mean_anomaly_deg": 271.9125,
      "mean_motion_rev_day": 15.08837844
    },
    {
      "epoch": "2026-04-13T06:30:39.945888Z",
      "apogee_km": 540.6419361447124,
      "perigee_km": 538.843564124867,
      "latitude_deg": 1.8253953801269993e-05,
      "longitude_deg": 109.67870204652354,
      "height_km": 540.5820424061942,
      "semi_major_axis_km": 6917.879750134789,
      "eccentricity": 0.00012998,
      "inclination_deg": 53.2178,
      "raan_deg": 48.8096,
      "arg_perigee_deg": 86.3948,
      "mean_anomaly_deg": 273.7193,
      "mean_motion_rev_day": 15.08840209
    },
    {
      "epoch": "2026-04-14T12:42:59.843520Z",
      "apogee_km": 540.6458707262864,
      "perigee_km": 538.8639601267114,
      "latitude_deg": -1.704638557636158e-05,
      "longitude_deg": 9.705373309370168,
      "height_km": 540.5786851511314,
      "semi_major_axis_km": 6917.891915426499,
      "eccentricity": 0.00012879,
      "inclination_deg": 53.2175,
      "raan_deg": 43.1597,
      "arg_perigee_deg": 85.3612,
      "mean_anomaly_deg": 274.7527,
      "mean_motion_rev_day": 15.08836229
    },
    {
      "epoch": "2026-04-15T12:33:47.267136Z",
      "apogee_km": 540.7948538358578,
      "perigee_km": 538.7275091433012,
      "latitude_deg": 7.416477751873202e-05,
      "longitude_deg": 6.5685032565239565,
      "height_km": 540.5985290069343,
      "semi_major_axis_km": 6917.898181489579,
      "eccentricity": 0.00014942,
      "inclination_deg": 53.2186,
      "raan_deg": 38.6997,
      "arg_perigee_deg": 86.7673,
      "mean_anomaly_deg": 273.3491,
      "mean_motion_rev_day": 15.08834179
    },
    {
      "epoch": "2026-04-16T12:24:34.447104Z",
      "apogee_km": 540.8378581054621,
      "perigee_km": 538.6739412064499,
      "latitude_deg": -1.426614629312023e-05,
      "longitude_deg": 3.431617795547509,
      "height_km": 540.6023021406107,
      "semi_major_axis_km": 6917.892899655955,
      "eccentricity": 0.0001564,
      "inclination_deg": 53.2193,
      "raan_deg": 34.2388,
      "arg_perigee_deg": 87.3924,
      "mean_anomaly_deg": 272.7247,
      "mean_motion_rev_day": 15.08835907
    }
  ]
}